LEMUR-2-STARLIGHT       
1 66783U 25276DY  26166.43448520  .00004198  00000+0  35009-3 0  9994
2 66783  97.5271 237.1330 0015216 132.8465 227.4040 14.99026242 29937
LEMUR-2-TARTIFLETTE     
1 66784U 25276DZ  26166.43299649  .00004213  00000+0  35118-3 0  9990
2 66784  97.5278 237.1384 0013974 139.1412 221.0862 14.99056574 29938
LEMUR-2-VUKASIN         
1 66785U 25276EA  26166.42817139  .00004876  00000+0  39290-3 0  9990
2 66785  97.5314 237.4253 0006205 128.3505 231.8278 15.00351851 29883
LEMUR-2-HOTSPUR-TOM     
1 66786U 25276EB  26166.42543773  .00005369  00000+0  44725-3 0  9998
2 66786  97.5269 237.1123 0015538 132.7730 227.4803 14.98944096 29862
LEMUR-2-MYRA            
1 66787U 25276EC  26166.19270642  .00006193  00000+0  49824-3 0  9996
2 66787  97.5221 237.1389 0016356 147.9911 212.2310 15.00219246 29910
LEMUR-2 FIKRETDENGIZ    
1 67363U 26004A   26166.52076697  .00003215  00000+0  35322-3 0  9998
2 67363  97.8008 165.1042 0009971 137.9941 222.2042 14.88314178 23035
TWILIGHT-1 OBJECT B     
1 67364U 26004B   26166.47727171  .00001596  00000+0  18108-3 0  9996
2 67364  97.8061 165.0775 0009836 129.1244 231.0848 14.87696947 23034
LEMUR-2-MARIO-SOUSA     
1 67365U 26004C   26166.50459553  .00003271  00000+0  35760-3 0  9992
2 67365  97.7985 165.0849 0009505 138.1478 222.0467 14.88502946 23047
LEMUR-2-SONNENBLUME     
1 67367U 26004E   26166.50276660  .00002198  00000+0  24343-3 0  9992
2 67367  97.7981 165.0682 0009027 139.9340 220.2545 14.88309062 23047
LEMUR-2-WOBLER          
1 67368U 26004F   26166.49648066  .00002944  00000+0  32246-3 0  9994
2 67368  97.8034 165.1826 0009493 130.1949 230.0100 14.88507929 23042
LEMUR-2-GRAM-E-SUE      
1 67370U 26004H   26166.48707877  .00002190  00000+0  24171-3 0  9993
2 67370  97.7967 165.0677 0008096 140.4951 219.6858 14.88465034 23040
LEMUR-2-KATIE           
1 67387U 26004AA  26166.47615155  .00003378  00000+0  35557-3 0  9996
2 67387  97.8032 165.5107 0004844  96.9813 263.1955 14.90038877 23051
LEMUR-2-HCS-BAZUS       
1 67388U 26004AB  26166.47523454  .00005013  00000+0  52467-3 0  9994
2 67388  97.8015 165.4906 0004429  93.6671 266.5053 14.90055962 23054
