OBJECT_NAME,OBJECT_ID,EPOCH,MEAN_MOTION,ECCENTRICITY,INCLINATION,RA_OF_ASC_NODE,ARG_OF_PERICENTER,MEAN_ANOMALY,EPHEMERIS_TYPE,CLASSIFICATION_TYPE,NORAD_CAT_ID,ELEMENT_SET_NO,REV_AT_EPOCH,BSTAR,MEAN_MOTION_DOT,MEAN_MOTION_DDOT
LEMUR-2-STARLIGHT,2025-276DY,2026-06-15T10:25:39.521280,14.99026242,.0015216,97.5271,237.1330,132.8465,227.4040,0,U,66783,999,2993,.35009E-3,.4198E-4,0
LEMUR-2-TARTIFLETTE,2025-276DZ,2026-06-15T10:23:30.896736,14.99056574,.0013974,97.5278,237.1384,139.1412,221.0862,0,U,66784,999,2993,.35118E-3,.4213E-4,0
LEMUR-2-VUKASIN,2025-276EA,2026-06-15T10:16:34.008096,15.00351851,.0006205,97.5314,237.4253,128.3505,231.8278,0,U,66785,999,2988,.3929E-3,.4876E-4,0
LEMUR-2-HOTSPUR-TOM,2025-276EB,2026-06-15T10:12:37.819872,14.98944096,.0015538,97.5269,237.1123,132.7730,227.4803,0,U,66786,999,2986,.44725E-3,.5369E-4,0
LEMUR-2-MYRA,2025-276EC,2026-06-15T04:37:29.834688,15.00219246,.0016356,97.5221,237.1389,147.9911,212.2310,0,U,66787,999,2991,.49824273E-3,.6193E-4,0
LEMUR-2 FIKRETDENGIZ,2026-004A,2026-06-15T12:29:54.266208,14.88314178,.0009971,97.8008,165.1042,137.9941,222.2042,0,U,67363,999,2303,.35322E-3,.3215E-4,0
TWILIGHT-1 OBJECT B,2026-004B,2026-06-15T11:27:16.275744,14.87696947,.0009836,97.8061,165.0775,129.1244,231.0848,0,U,67364,999,2303,.18108E-3,.1596E-4,0
LEMUR-2-MARIO-SOUSA,2026-004C,2026-06-15T12:06:37.053792,14.88502946,.0009505,97.7985,165.0849,138.1478,222.0467,0,U,67365,999,2304,.3576E-3,.3271E-4,0
LEMUR-2-SONNENBLUME,2026-004E,2026-06-15T12:03:59.034240,14.88309062,.0009027,97.7981,165.0682,139.9340,220.2545,0,U,67367,999,2304,.24343E-3,.2198E-4,0
LEMUR-2-WOBLER,2026-004F,2026-06-15T11:54:55.929024,14.88507929,.0009493,97.8034,165.1826,130.1949,230.0100,0,U,67368,999,2304,.32246E-3,.2944E-4,0
LEMUR-2-GRAM-E-SUE,2026-004H,2026-06-15T11:41:23.605728,14.88465034,.0008096,97.7967,165.0677,140.4951,219.6858,0,U,67370,999,2304,.24171E-3,.219E-4,0
LEMUR-2-KATIE,2026-004AA,2026-06-15T11:25:39.493920,14.90038877,.0004844,97.8032,165.5107,96.9813,263.1955,0,U,67387,999,2305,.35557E-3,.3378E-4,0
LEMUR-2-HCS-BAZUS,2026-004AB,2026-06-15T11:24:20.264256,14.90055962,.0004429,97.8015,165.4906,93.6671,266.5053,0,U,67388,999,2305,.52467E-3,.5013E-4,0
